STARLINK-35578          
1 66168U 25240Y   25361.15492690  .00043167  00000+0  14579-2 0  9991
2 66168  53.1602  39.6732 0001426  96.8159 263.3004 15.30271377 10888
STARLINK-35638          
1 66169U 25240Z   25361.10544486  .00029250  00000+0  99532-3 0  9998
2 66169  53.1600  40.0755 0001395  90.7375 269.3786 15.30216497 10870
STARLINK-35585          
1 66170U 25240AA  25361.12127387  .00049802  00000+0  16807-2 0  9997
2 66170  53.1628  40.1766 0001267  93.6447 266.4699 15.30232913 10877
STARLINK-35606          
1 66171U 25240AB  25361.14543086  .00023129  00000+0  78987-3 0  9990
2 66171  53.1624  39.6144 0001981  95.3844 264.7383 15.30229418 10888
STARLINK-35627          
1 66172U 25240AC  25360.50811494  .00031890  00000+0  10840-2 0  9998
2 66172  53.1617  42.7490 0001191  86.8636 273.2501 15.30205637 10780
STARLINK-35634          
1 66173U 25240AD  25361.14331977  .00033425  00000+0  11347-2 0  9992
2 66173  53.1607  39.6016 0001244  95.6078 264.5065 15.30225019 10881
STARLINK-35363          
1 66178U 25243B   25360.93799249  .00024470  00000+0  83544-3 0  9995
2 66178  53.1594 223.2853 0000961  98.1099 262.0011 15.30205818  9514
STARLINK-35346          
1 66179U 25243C   25361.00647461  .00013401  00000+0  46368-3 0  9998
2 66179  53.1598 223.0011 0001504  81.9827 278.1344 15.30205523  9527
STARLINK-35335          
1 66180U 25243D   25360.94432443  .00023125  00000+0  79025-3 0  9994
2 66180  53.1597 223.3248 0001078 100.5756 259.5366 15.30208672  9512
STARLINK-35342          
1 66181U 25243E   25360.94645440  .00018293  00000+0  62867-3 0  9994
2 66181  53.1594 223.3390 0001458  84.6177 275.4990 15.30178175  9513
STARLINK-35333          
1 66182U 25243F   25361.01386242  .00039218  00000+0  13293-2 0  9994
2 66182  53.1608 223.0503 0001311  80.4486 279.6663 15.30198668  9521
STARLINK-35310          
1 66183U 25243G   25360.88640433  .00010214  00000+0  35665-3 0  9997
2 66183  53.1602 223.6768 0001815  57.6341 302.4836 15.30186003  9505
STARLINK-35317          
1 66184U 25243H   25360.93904845  .00019391  00000+0  66506-3 0  9997
2 66184  53.1589 223.2949 0001300  87.4461 272.6689 15.30202115  9518
STARLINK-35377          
1 66185U 25243J   25360.94960272  .00038429  00000+0  13024-2 0  9994
2 66185  53.1603 223.3623 0001313  77.2720 282.8428 15.30212972  9511
STARLINK-35365          
1 66186U 25243K   25360.94536802  .00014182  00000+0  49020-3 0  9999
2 66186  53.1603 223.3360 0001373  83.4025 276.7132 15.30189191  9513
STARLINK-35350          
1 66187U 25243L   25361.01808147  .00034627  00000+0  11754-2 0  9991
2 66187  53.1601 223.0792 0000503 105.2380 254.8677 15.30210990  9523
STARLINK-35041          
1 66188U 25243M   25360.93588454  .00018096  00000+0  62171-3 0  9990
2 66188  53.1582 223.2781 0001231 101.6986 258.4153 15.30194007  9511
STARLINK-34694          
1 66189U 25243N   25360.86422619  .00063024  00000+0  21217-2 0  9999
2 66189  53.1565 223.5376 0001046 100.5784 259.5335 15.30205801  9502
STARLINK-34863          
1 66190U 25243P   25361.00753148  .00016839  00000+0  57938-3 0  9994
2 66190  53.1591 223.0116 0001337  87.9496 272.1658 15.30200472  9521
STARLINK-35061          
1 66191U 25243Q   25361.02019762  .00044732  00000+0  15130-2 0  9994
2 66191  53.1600 223.0885 0000903 114.3553 245.7542 15.30207242  9523
STARLINK-34937          
1 66192U 25243R   25361.02335954  .00033110  00000+0  11243-2 0  9998
2 66192  53.1594 223.1106 0000962  72.9956 287.1150 15.30220334  9526
STARLINK-35197          
1 66193U 25243S   25360.85157315  .00024220  00000+0  82717-3 0  9999
2 66193  53.1569 223.4571 0001156  86.6699 273.4434 15.30201786  9501
STARLINK-35374          
1 66194U 25243T   25360.98536816  .00025837  00000+0  88133-3 0  9994
2 66194  53.1575 222.8702 0001057  94.5336 265.5785 15.30203621  9527
STARLINK-34813          
1 66195U 25243U   25360.92322051  .00024294  00000+0  82948-3 0  9997
2 66195  53.1576 223.1923 0001228  80.8081 279.3059 15.30207880  9510
STARLINK-35409          
1 66196U 25243V   25361.05701646  .00013366  00000+0  46271-3 0  9991
2 66196  53.1576 222.6076 0001282  91.0705 269.0443 15.30192155  9534
STARLINK-35518          
1 66197U 25243X   25360.99803315  .00027946  00000+0  95188-3 0  9990
2 66197  53.1584 222.9507 0001200  85.9303 274.1835 15.30208117  9529
STARLINK-35259          
1 66198U 25243W   25361.02653215  .00021695  00000+0  74322-3 0  9990
2 66198  53.1597 223.1258 0001215  96.9883 263.1256 15.30167600  9527
STARLINK-35509          
1 66199U 25243Y   25360.85051649  .00019655  00000+0  67388-3 0  9991
2 66199  53.1571 223.4466 0000921  92.5936 267.5170 15.30204966  9506
STARLINK-35551          
1 66200U 25243Z   25360.91899924  .00024465  00000+0  83573-3 0  9996
2 66200  53.1573 223.1645 0001546  98.8259 261.2917 15.30188219  9511
STARLINK-35543          
1 66201U 25243AA  25361.05279411  .00032572  00000+0  11067-2 0  9992
2 66201  53.1576 222.5767 0001052  87.4119 272.7002 15.30209326  9531
STARLINK-35534          
1 66202U 25243AB  25361.05596058  .00028038  00000+0  95490-3 0  9997
2 66202  53.1570 222.5989 0001718 105.8712 254.2478 15.30210446  9532
STARLINK-35548          
1 66203U 25243AC  25361.05912620  .00025176  00000+0  85932-3 0  9995
2 66203  53.1577 222.6180 0001382  96.4373 263.6785 15.30197651  9536
STARLINK-35490          
1 66204U 25243AD  25361.00014183  .00024450  00000+0  83465-3 0  9991
2 66204  53.1589 222.9606 0001251  86.0854 274.0289 15.30209604  9526
STARLINK-35748          
1 66206U 25244A   25361.16668980  .00020790  00000+0  52864-3 0  9993
2 66206  53.1583 208.2046 0001169  84.4491 355.2941 15.39601376  5832
STARLINK-35747          
1 66207U 25244B   25360.86208523  .00019221  00000+0  65926-3 0  9993
2 66207  53.1593 208.5390 0001175 105.7162 254.3969 15.30207558 10502
STARLINK-35751          
1 66208U 25244C   25361.16668980  .00021005  00000+0  53399-3 0  9999
2 66208  53.1584 208.2009 0001219  82.4941 359.0778 15.39601533  5833
STARLINK-35750          
1 66209U 25244D   25360.75787026  .00062402  00000+0  15550-2 0  9999
2 66209  53.1592 210.0749 0000827 104.0850 256.0247 15.39665547 10477
STARLINK-35740          
1 66210U 25244E   25360.88802882  .00030119  00000+0  75981-3 0  9998
2 66210  53.1586 209.4642 0000886  86.7934 273.3173 15.39627133 10491
STARLINK-35723          
1 66211U 25244F   25360.88338641  .00079056  00000+0  19656-2 0  9995
2 66211  53.1595 209.4353 0001296  91.3345 268.7808 15.39625505 10499
STARLINK-35710          
1 66212U 25244G   25360.87874659  .00087660  00000+0  21736-2 0  9991
2 66212  53.1589 209.4042 0001065  96.3681 263.7445 15.39659626 10493
STARLINK-34204          
1 66213U 25244H   25360.88305617  .00046746  00000+0  11713-2 0  9990
2 66213  53.1594 209.4328 0001104  83.4103 276.7028 15.39624323 10494
STARLINK-35714          
1 66214U 25244J   25360.80454055  .00019546  00000+0  49732-3 0  9995
2 66214  53.1586 209.6512 0000772  83.1625 276.9468 15.39624056 10481
STARLINK-35712          
1 66215U 25244K   25360.99464012  .00094670  00000+0  23477-2 0  9998
2 66215  53.1607 208.7018 0001179  70.8878 289.2254 15.39617474 10512
STARLINK-35709          
1 66216U 25244L   25360.87841231  .00051230  00000+0  12816-2 0  9998
2 66216  53.1590 209.4016 0001215  84.2257 275.8886 15.39632077 10496
STARLINK-35700          
1 66217U 25244M   25360.87409872  .00050321  00000+0  12597-2 0  9996
2 66217  53.1583 209.3754 0001060  80.5454 279.5670 15.39619092 10486
STARLINK-35722          
1 66218U 25244N   25360.93868127  .00027773  00000+0  70144-3 0  9994
2 66218  53.1593 209.0676 0001005  88.0381 272.0738 15.39634651 10503
STARLINK-35737          
1 66219U 25244P   25360.80420886  .00030538  00000+0  77049-3 0  9991
2 66219  53.1601 209.6497 0001289  93.8847 266.2305 15.39615360 10484
STARLINK-35677          
1 66220U 25244Q   25360.86448026  .00050465  00000+0  12617-2 0  9995
2 66220  53.1590 209.3122 0001610 100.9507 259.1679 15.39657881 10496
STARLINK-35704          
1 66221U 25244R   25360.98966571  .00042807  00000+0  10735-2 0  9999
2 66221  53.1597 208.6722 0001218  84.0310 276.0834 15.39637700 10512
STARLINK-35666          
1 66222U 25244S   25360.98502124  .00043549  00000+0  10918-2 0  9997
2 66222  53.1596 208.6422 0000721 108.4001 251.7083 15.39640182 10519
STARLINK-35664          
1 66223U 25244T   25361.16668980  .00014422  00000+0  37011-3 0  9994
2 66223  53.1593 207.7916 0001260  83.4473 202.3279 15.39597971  5834
STARLINK-35733          
1 66224U 25244U   25361.11020586  .00031316  00000+0  78951-3 0  9993
2 66224  53.1603 208.0000 0001167  80.0939 280.0197 15.39625827 10538
STARLINK-35734          
1 66225U 25244V   25360.85054321  .00052855  00000+0  12975-2 0  9992
2 66225  53.1605 209.2247 0002787 209.7137 150.3710 15.40192309 10497
STARLINK-34466          
1 66226U 25244W   25361.00003472  .00080526  00000+0  20052-2 0  9993
2 66226  53.1595 208.4731 0001133  82.9506  50.0863 15.39569574  5905
STARLINK-34882          
1 66227U 25244X   25360.97573409  .00041738  00000+0  10469-2 0  9994
2 66227  53.1609 208.5808 0000066 326.5849  33.5152 15.39642754 10511
STARLINK-35731          
1 66228U 25244Y   25361.10124360  .00031810  00000+0  80079-3 0  9994
2 66228  53.1602 207.9412 0001324  77.8814 282.2339 15.39662683 10530
STARLINK-35758          
1 66229U 25244Z   25360.84126175  .00041734  00000+0  10471-2 0  9995
2 66229  53.1584 209.1629 0000993 104.5186 255.5930 15.39635919 10492
STARLINK-35736          
1 66230U 25244AA  25361.16668980  .00017211  00000+0  43971-3 0  9993
2 66230  53.1583 207.5823 0001339  79.4161 309.3537 15.39589991  5885
STARLINK-35735          
1 66231U 25244AB  25360.90153407  .00073015  00000+0  18175-2 0  9999
2 66231  53.1595 208.8274 0001137  76.3217 283.7914 15.39627495 10508
